{
  "Mercury": {
    "mass_kg": 0.330103e24,

    "meanRadius_ratio": 0.383,
    "meanRadius_m": 2439.4e3,
    "equatorialRadius_m": 2440.53e3,
    "polarRadius_m": 2438.3e3,

    "SurfaceGravity_Ms": 3.7,
    "SurfaceAcceleration_Ms": 3.7,

    "topographicRange_m": 7.0e3,

    "semiMajorAxis_m": 57.909e9,
    "semiMajorAxis_au": 0.38709927,

    "siderealOrbitPeriod_days": 87.969,
    "tropicalOrbitPeriod_days": 87.968,

    "periapsis_m": 46.0e9,
    "apoapsis_m": 69.818e9,

    "synodicPeriod_days": 115.88,

    "maxVelocity_kms": 58.98,
    "minVelocity_kms": 38.86,

    "eccentricity": 0.20563661,

    "inclination_deg": 7.00559432,
    "meanLongitude_deg": 252.2503235,
    "longitudeOfPeriapsis_deg": 77.45779628,
    "longitudeOfAscendingNode_deg": 48.33076593,

    "argumentOfPeriapsis_deg": 29.12478,

    "MeanAngularMotion_Deg_Day": 4.0923388,

    "axialTilt_deg": 0.034,

    "siderealRotationPeriod_hrs": 1407.6,
    "siderealRotationPeriod_days": 58.6462,

    "color": "0xF7F7F7"
  },

  "Venus": {
    "mass_kg": 4.86731e24,

    "meanRadius_ratio": 0.95,
    "meanRadius_m": 6051.8e3,
    "equatorialRadius_m": 6051.8e3,
    "polarRadius_m": 6051.8e3,

    "surfaceGravity": 8.87,
    "surfaceAcceleration": 8.87,

    "topographicRange_m": 13.0e3,

    "semiMajorAxis_m": 108.21e9,
    "semiMajorAxis_au": 0.72333566,

    "siderealOrbitPeriod_days": 224.701,
    "tropicalOrbitPeriod_days": 224.695,

    "periapsis_m": 107.48e9,
    "apoapsis_m": 108.941e9,

    "synodicPeriod_days": 583.92,

    "maxVelocity_kms": 35.26,
    "minVelocity_kms": 34.79,

    "eccentricity": 0.0068,

    "inclination_deg": 3.3947,

    "meanLongitude_deg": 181.9790995,
    "longitudeOfPeriapsis_deg": 131.60246718,
    "longitudeOfAscendingNode_deg": 76.67984255,

    "argumentOfPeriapsis_deg": 54.85229,

    "axialTilt_deg": 177.36,

    "siderealRotationPeriod_hrs": -5832.6,
    "siderealRotationPeriod_days": -243.018,

    "color": "0xFCF75E"
  },

  "Earth": {
    "mass_kg": 5.97217e24,

    "meanRadius_ratio": 1.0,
    "meanRadius_m": 6371.0084e3,
    "equatorialRadius_m": 6378.137e3,
    "polarRadius_m": 6356.752e3,

    "surfaceGravity": 9.798,
    "surfaceAcceleration": 9.78,

    "semiMajorAxis_m": 149.598e9,

    "siderealOrbitPeriod_days": 365.256,
    "tropicalOrbitPeriod_days": 365.242,

    "periapsis_m": 147.095e9,
    "apoapsis_m": 152.1e9,

    "maxVelocity_kms": 30.29,
    "minVelocity_kms": 29.29,

    "eccentricity": 0.01671022,

    "inclination_deg": 0.00005,

    "meanLongitude_deg": 100.46435,
    "longitudeOfPeriapsis_deg": 102.94719,
    "longitudeOfAscendingNode_deg": -11.26064,

    "argumentOfPeriapsis_deg": 114.20783,

    "axialTilt_deg": 23.44,

    "siderealRotationPeriod_hrs": 23.9345,
    "siderealRotationPeriod_days": 0.99726968,

    "color": "0x03C03C"
  },
  "Moon": {
    "mass_kg": 0.07346e24,
    "meanRadius_m": 1737.4e3,

    "semiMajorAxis_m": 0.3844e9,

    "periapsis_M": 0.3633e9,
    "apoapsis_M": 0.4055e9,

    "synodicPeriod_Days": 29.53,

    "maxVelocity_km/s": 1.082,
    "minVelocity_km/s": 0.97,

    "eccentricity": 0.0554,

    "inclination_deg": 5.145,
    "longitudeOfAscendingNode_deg": 125.08,
    "argumentOfPeriapsis_deg": 318.15,

    "axialTilt_deg": 6.68,

    "siderealRotationPeriod_hr": 655.72,

    "meanAnomaly_deg_j2000": 135.27
  },

  "EarthMoonBarycenter": {
    "semiMajorAxis_au": 1.00000261,
    "eccentricity": 0.01671123,
    "inclination_deg": -0.00001531,

    "meanLongitude_deg": 100.46457166,
    "longitudeOfPeriapsis_deg": 102.93768193,
    "longitudeOfAscendingNode_deg": 0.0,

    "argumentOfPeriapsis_deg": 102.93768193
  },

  "Mars": {
    "mass_kg": 0.641691e24,

    "meanRadius_ratio": 0.532,
    "meanRadius_m": 3389.5e3,
    "equatorialRadius_m": 3396.2e3,
    "polarRadius_m": 3376.2e3,

    "surfaceGravity": 3.71,
    "surfaceAcceleration": 3.69,

    "semiMajorAxis_m": 227.956e9,
    "semiMajorAxis_au": 1.52371034,

    "siderealOrbitPeriod_days": 686.98,
    "tropicalOrbitPeriod_days": 686.973,

    "periapsis_m": 206.65e9,
    "apoapsis_m": 249.261e9,

    "maxVelocity_kms": 26.5,
    "minVelocity_kms": 21.97,

    "eccentricity": 0.0933941,

    "inclination_deg": 1.84969142,

    "meanLongitude_deg": -4.55343205,
    "longitudeOfPeriapsis_deg": -23.94362959,
    "longitudeOfAscendingNode_deg": 49.55953891,

    "argumentOfPeriapsis_deg": null,

    "axialTilt_deg": 25.19,

    "siderealRotationPeriod_hrs": 24.6229,
    "siderealRotationPeriod_days": 1.02595676,

    "color": "0xFF4F00"
  },

  "Jupiter": {
    "mass_kg": 1898.125e24,

    "meanRadius_ratio": 10.973,
    "meanRadius_m": 69911.0e3,
    "equatorialRadius_m": 71492.0e3,
    "polarRadius_m": 66854.0e3,

    "surfaceGravity": 24.79,
    "surfaceAcceleration": 23.12,

    "semiMajorAxis_m": 778.479e9,
    "semiMajorAxis_au": 5.202887,

    "siderealOrbitPeriod_days": 4332.589,
    "tropicalOrbitPeriod_days": 4330.595,

    "periapsis_m": 740.595e9,
    "apoapsis_m": 816.363e9,

    "maxVelocity_kms": 13.72,
    "minVelocity_kms": 12.44,

    "eccentricity": 0.04838624,

    "inclination_deg": 1.30439695,

    "meanLongitude_deg": 34.39644051,
    "longitudeOfPeriapsis_deg": 14.72847983,
    "longitudeOfAscendingNode_deg": 100.47390909,

    "argumentOfPeriapsis_deg": null,

    "axialTilt_deg": 3.13,

    "siderealRotationPeriod_hrs": 9.925,
    "siderealRotationPeriod_days": 0.41354,

    "color": "0xF4C430"
  },

  "Saturn": {
    "mass_kg": 568.317e24,

    "meanRadius_ratio": 9.14,
    "meanRadius_m": 58232.0e3,
    "equatorialRadius_m": 60268.0e3,
    "polarRadius_m": 54364.0e3,

    "surfaceGravity": 10.44,
    "surfaceAcceleration": 8.96,

    "semiMajorAxis_m": 1432.041e9,
    "semiMajorAxis_au": 9.53667594,

    "siderealOrbitPeriod_days": 10759.22,
    "tropicalOrbitPeriod_days": 10746.94,

    "periapsis_m": 1357.554e9,
    "apoapsis_m": 1506.527e9,

    "maxVelocity_kms": 10.18,
    "minVelocity_kms": 9.09,

    "eccentricity": 0.05386179,

    "inclination_deg": 2.48599187,

    "meanLongitude_deg": 49.95424423,
    "longitudeOfPeriapsis_deg": 92.59887831,
    "longitudeOfAscendingNode_deg": 113.66242448,

    "argumentOfPeriapsis_deg": null,

    "axialTilt_deg": 26.73,

    "siderealRotationPeriod_hrs": 10.656,
    "siderealRotationPeriod_days": 0.44401,

    "color": "F8DE7E"
  },

  "Uranus": {
    "mass_kg": 86.8099e24,

    "meanRadius_ratio": 3.981,
    "meanRadius_m": 25362e3,
    "equatorialRadius_m": 25559.0e3,
    "polarRadius_m": 24973.0e3,

    "surfaceGravity": 8.87,
    "surfaceAcceleration": 8.69,

    "semiMajorAxis_m": 2867.043e9,
    "semiMajorAxis_au": 19.18916464,

    "siderealOrbitPeriod_days": 30685.4,
    "tropicalOrbitPeriod_days": 30588.74,

    "periapsis_m": 2732.696e9,
    "apoapsis_m": 3001.39e9,

    "maxVelocity_kms": 7.11,
    "minVelocity_kms": 6.49,

    "eccentricity": 0.04725744,

    "inclination_deg": 0.77263783,

    "meanLongitude_deg": 313.23810451,
    "longitudeOfPeriapsis_deg": 170.9542763,
    "longitudeOfAscendingNode_deg": 74.01692503,

    "argumentOfPeriapsis_deg": null,

    "axialTilt_deg": 97.77,

    "siderealRotationPeriod_hrs": -17.24,
    "siderealRotationPeriod_days": -0.71833,

    "color": "0xAFDBF5"
  },

  "Neptune": {
    "mass_kg": 102.4092e24,

    "meanRadius_ratio": 3.865,
    "meanRadius_m": 24622e3,
    "equatorialRadius_m": 24764.0e3,
    "polarRadius_m": 24341.0e3,

    "surfaceGravity": 11.15,
    "surfaceAcceleration": 11.0,

    "semiMajorAxis_m": 4514.953e9,
    "semiMajorAxis_au": 30.06992276,

    "siderealOrbitPeriod_days": 60189.0,
    "tropicalOrbitPeriod_days": 59799.9,

    "periapsis_m": 4471.05e9,
    "apoapsis_m": 4558.857e9,

    "maxVelocity_kms": 5.5,
    "minVelocity_kms": 5.37,

    "eccentricity": 0.00859048,

    "inclination_deg": 1.77004347,

    "meanLongitude_deg": -55.12002969,
    "longitudeOfPeriapsis_deg": 44.96476227,
    "longitudeOfAscendingNode_deg": 131.78422574,

    "argumentOfPeriapsis_deg": null,

    "axialTilt_deg": 28.32,

    "siderealRotationPeriod_hrs": 16.11,
    "siderealRotationPeriod_days": 0.67125,

    "color": "0x4666FF"
  }
}
